IXPE                    
1 49954U 21121A   24235.91667824  .00009286  00000+0  67239-3 0  9991
2 49954   0.2298 258.1700 0009278 192.8550 135.8688 14.99307378  5648
